 Automated mail xmit by MAIL_REQUEST, PID=   105359 Wed Nov 30 07:00:29 2016
++++++++++++++++++++++++++++++++ (part 1 of 1)  +++++++++++++++++++++++++++++++

*******************************************************************************
 Revised : Jul 31, 2013                  Sun                                 10

 PHYSICAL PROPERTIES (revised Jan 16, 2014):
  GM (10^11 km^3/s^2)   = 1.3271244004193938  Mass (10^30 kg)   ~ 1.988544
  Radius (photosphere)  = 6.963(10^5) km  Angular diam at 1 AU  = 1919.3"
  Solar Radius (IAU)    = 6.955(10^5) km  Mean density          = 1.408 g/cm^3
  Surface gravity       =  274.0 m/s^2    Moment of inertia     = 0.059
  Escape velocity       =  617.7 km/s     Adopted sidereal per  = 25.38 d
  Pole (RA,DEC in deg.) =  286.13,63.87   Obliquity to ecliptic = 7 deg 15'
  Solar constant (1 AU) = 1367.6 W/m^2    Solar lumin.(erg/s)   =  3.846(10^33)
  Mass-energy conv rate = 4.3(10^12 gm/s) Effective temp (K)    =  5778
  Surf. temp (photosphr)= 6600 K (bottom) Surf. temp (photosphr)=  4400 K (top)
  Photospheric depth    = ~400 km         Chromospheric depth   = ~2500 km
  Sunspot cycle         = 11.4 yr         Cycle 22 sunspot min. =  1991 A.D.

  Motn. rel to nrby strs= apex : RA=271 deg; DEC=+30 deg
                          speed: 19.4 km/s = 0.0112 AU/day
  Motn. rel to 2.73K BB = apex : l=264.7+-0.8; b=48.2+-0.5
                          speed: 369 +-11 km/s
*******************************************************************************


*******************************************************************************
Ephemeris / MAIL_REQUEST Wed Nov 30 07:00:29 2016 Pasadena, USA  / Horizons

*******************************************************************************
Target body name: Sun (10)                        {source: DE431mx}
Center body name: Solar System Barycenter (0)     {source: DE431mx}
Center-site name: BODY CENTER
*******************************************************************************
Start time      : A.D. 2016-Nov-30 00:00:00.0000 TDB
Stop  time      : A.D. 2016-Dec-30 00:00:00.0000 TDB
Step-size       : 720 minutes
*******************************************************************************
Center geodetic : 0.00000000,0.00000000,0.0000000 {E-lon(deg),Lat(deg),Alt(km)}
Center cylindric: 0.00000000,0.00000000,0.0000000 {E-lon(deg),Dxy(km),Dz(km)}
Center radii    : (undefined)
Output units    : KM-S
Output type     : GEOMETRIC cartesian states
Output format   : 2x (pos. & vel. w/uncertainties: XYZ)
Reference frame : ICRF/J2000.0
Coordinate systm: Ecliptic and Mean Equinox of Reference Epoch
*******************************************************************************
JDTDB
 State   : X       Y        Z     VX       VY        VZ
 1-sigma : X_s     Y_s      Z_s   VX_s     VY_s      VZ_s
*******************************************************************************************************************************************************
$$SOE
2457741.500000000 = A.D. 2016-Dec-19 00:00:00.0000 TDB
 XYZ   :  5.114496815128443E+05   5.758547921288100E+05  -2.345614389157388E+04  -4.342036766198517E-03   1.162683062637505E-02   8.777313535032749E-05
 sigmas:                   n.a.                    n.a.                    n.a.                    n.a.                    n.a.                    n.a.
2457742.000000000 = A.D. 2016-Dec-19 12:00:00.0000 TDB
 XYZ   :  5.112619597418783E+05   5.763570615182992E+05  -2.345234902668916E+04  -4.348789839652222E-03   1.162638676084098E-02   8.791557207339824E-05
 sigmas:                   n.a.                    n.a.                    n.a.                    n.a.                    n.a.                    n.a.
2457742.500000000 = A.D. 2016-Dec-20 00:00:00.0000 TDB
 XYZ   :  5.110739457236436E+05   5.768593123660217E+05  -2.344854794047313E+04  -4.355567014690526E-03   1.162597213184826E-02   8.806118024792548E-05
 sigmas:                   n.a.                    n.a.                    n.a.                    n.a.                    n.a.                    n.a.
2457743.000000000 = A.D. 2016-Dec-20 12:00:00.0000 TDB
 XYZ   :  5.108856383802706E+05   5.773615459236578E+05  -2.344474049336326E+04  -4.362369991036210E-03   1.162558619001605E-02   8.821007639128221E-05
 sigmas:                   n.a.                    n.a.                    n.a.                    n.a.                    n.a.                    n.a.
2457743.500000000 = A.D. 2016-Dec-21 00:00:00.0000 TDB
 XYZ   :  5.106970365603857E+05   5.778637634159448E+05  -2.344092654101222E+04  -4.369200469066840E-03   1.162522823651609E-02   8.836236517696140E-05
 sigmas:                   n.a.                    n.a.                    n.a.                    n.a.                    n.a.                    n.a.
2457744.000000000 = A.D. 2016-Dec-21 12:00:00.0000 TDB
 XYZ   :  5.105081390394656E+05   5.783659660341296E+05  -2.343710593484188E+04  -4.376060131811613E-03   1.162489741931737E-02   8.851813747597255E-05
 sigmas:                   n.a.                    n.a.                    n.a.                    n.a.                    n.a.                    n.a.
2457744.500000000 = A.D. 2016-Dec-22 00:00:00.0000 TDB
 XYZ   :  5.103189445210082E+05   5.788681549293237E+05  -2.343327852268054E+04  -4.382950625170530E-03   1.162459273248233E-02   8.867746848445057E-05
 sigmas:                   n.a.                    n.a.                    n.a.                    n.a.                    n.a.                    n.a.
2457745.000000000 = A.D. 2016-Dec-22 12:00:00.0000 TDB
 XYZ   :  5.101294516384882E+05   5.793703312056627E+05  -2.342944414948803E+04  -4.389873544447615E-03   1.162431300891989E-02   8.884041589642729E-05
 sigmas:                   n.a.                    n.a.                    n.a.                    n.a.                    n.a.                    n.a.
2457745.500000000 = A.D. 2016-Dec-23 00:00:00.0000 TDB
 XYZ   :  5.099396589578556E+05   5.798724959140914E+05  -2.342560265807962E+04  -4.396830412928246E-03   1.162405694754652E-02   8.900702015729716E-05
 sigmas:                   n.a.                    n.a.                    n.a.                    n.a.                    n.a.                    n.a.
2457746.000000000 = A.D. 2016-Dec-23 12:00:00.0000 TDB
 XYZ   :  5.097495649813854E+05   5.803746500456296E+05  -2.342175389001562E+04  -4.403822654517446E-03   1.162382308326160E-02   8.917729949936386E-05
 sigmas:                   n.a.                    n.a.                    n.a.                    n.a.                    n.a.                    n.a.
2457746.500000000 = A.D. 2016-Dec-24 00:00:00.0000 TDB
 XYZ   :  5.095591681521558E+05   5.808767945252699E+05  -2.341789768649847E+04  -4.410851582754782E-03   1.162360982507258E-02   8.935125204966293E-05
 sigmas:                   n.a.                    n.a.                    n.a.                    n.a.                    n.a.                    n.a.
2457747.000000000 = A.D. 2016-Dec-24 12:00:00.0000 TDB
 XYZ   :  5.093684668592130E+05   5.813789302066818E+05  -2.341403388926532E+04  -4.417918382716772E-03   1.162341546377067E-02   8.952885479643780E-05
 sigmas:                   n.a.                    n.a.                    n.a.                    n.a.                    n.a.                    n.a.
2457747.500000000 = A.D. 2016-Dec-25 00:00:00.0000 TDB
 XYZ   :  5.091774594434784E+05   5.818810578673698E+05  -2.341016234151277E+04  -4.425024094796888E-03   1.162323818495038E-02   8.971006316443181E-05
 sigmas:                   n.a.                    n.a.                    n.a.                    n.a.                    n.a.                    n.a.
2457748.000000000 = A.D. 2016-Dec-25 12:00:00.0000 TDB
 XYZ   :  5.089861442043057E+05   5.823831782044857E+05  -2.340628288882738E+04  -4.432169601007679E-03   1.162307608608157E-02   8.989481115271192E-05
 sigmas:                   n.a.                    n.a.                    n.a.                    n.a.                    n.a.                    n.a.
2457748.500000000 = A.D. 2016-Dec-26 00:00:00.0000 TDB
 XYZ   :  5.087945194065648E+05   5.828852918314430E+05  -2.340239538009881E+04  -4.439355614271392E-03   1.162292719647287E-02   9.008301198286470E-05
 sigmas:                   n.a.                    n.a.                    n.a.                    n.a.                    n.a.                    n.a.
2457749.000000000 = A.D. 2016-Dec-26 12:00:00.0000 TDB
 XYZ   :  5.086025832881199E+05   5.833873992754403E+05  -2.339849966839532E+04  -4.446582671002592E-03   1.162278949908984E-02   9.027455920069833E-05
 sigmas:                   n.a.                    n.a.                    n.a.                    n.a.                    n.a.                    n.a.
2457749.500000000 = A.D. 2016-Dec-27 00:00:00.0000 TDB
 XYZ   :  5.084103340675517E+05   5.838895009759478E+05  -2.339459561178277E+04  -4.453851127138758E-03   1.162266095331126E-02   9.046932817090639E-05
 sigmas:                   n.a.                    n.a.                    n.a.                    n.a.                    n.a.                    n.a.
2457750.000000000 = A.D. 2016-Dec-27 12:00:00.0000 TDB
 XYZ   :  5.082177699519785E+05   5.843915972841841E+05  -2.339068307407157E+04  -4.461161157642517E-03   1.162253951782254E-02   9.066717790132302E-05
 sigmas:                   n.a.                    n.a.                    n.a.                    n.a.                    n.a.                    n.a.
2457750.500000000 = A.D. 2016-Dec-28 00:00:00.0000 TDB
 XYZ   :  5.080248891448229E+05   5.848936884635718E+05  -2.338676192547911E+04  -4.468512759382214E-03   1.162242317295536E-02   9.086795313186478E-05
 sigmas:                   n.a.                    n.a.                    n.a.                    n.a.                    n.a.                    n.a.
